{
  "type": "FeatureCollection",
  "features": [
    {
      "type": "Feature",
      "properties": {
        "norad_id": 59600,
        "name": "GSAT0227 (GALILEO 30)",
        "group": "gnss",
        "lat": 5.044279552716383,
        "lon": -77.2270801850389,
        "alt_km": 23216.805106179432,
        "timestamp": "2025-12-11T13:55:02.408598+00:00",
        "meta_object_name": "GSAT0227 (GALILEO 30)",
        "meta_object_id": "2024-079C",
        "meta_epoch": "2025-12-08T22:48:42.234912",
        "meta_mean_motion": 1.70474719,
        "meta_eccentricity": 0.0003262,
        "meta_inclination": 54.9946,
        "meta_ra_of_asc_node": 106.4003,
        "meta_arg_of_pericenter": 114.182,
        "meta_mean_anomaly": 245.816,
        "meta_ephemeris_type": 0,
        "meta_classification_type": "U",
        "meta_norad_cat_id": 59600,
        "meta_element_set_no": 999,
        "meta_rev_at_epoch": 1012,
        "meta_bstar": 0,
        "meta_mean_motion_dot": 9e-08,
        "meta_mean_motion_ddot": 0,
        "tle_line1": "1 59600U 24079C   25342.95048883  .00000009  00000+0  00000+0 0  9990",
        "tle_line2": "2 59600  54.9946 106.4003 0003262 114.1820 245.8160  1.70474719 10123"
      },
      "geometry": {
        "type": "Point",
        "coordinates": [
          -77.2270801850389,
          5.044279552716383
        ]
      }
    },
    {
      "type": "Feature",
      "properties": {
        "norad_id": 61182,
        "name": "GSAT0232 (GALILEO 32)",
        "group": "gnss",
        "lat": 6.729870780503854,
        "lon": -128.83374889394665,
        "alt_km": 23226.944001349042,
        "timestamp": "2025-12-11T13:55:02.408611+00:00",
        "meta_object_name": "GSAT0232 (GALILEO 32)",
        "meta_object_id": "2024-167A",
        "meta_epoch": "2025-12-10T16:21:03.753216",
        "meta_mean_motion": 1.70473375,
        "meta_eccentricity": 0.00019436,
        "meta_inclination": 55.2414,
        "meta_ra_of_asc_node": 226.4872,
        "meta_arg_of_pericenter": 211.0668,
        "meta_mean_anomaly": 325.7159,
        "meta_ephemeris_type": 0,
        "meta_classification_type": "U",
        "meta_norad_cat_id": 61182,
        "meta_element_set_no": 999,
        "meta_rev_at_epoch": 766,
        "meta_bstar": 0,
        "meta_mean_motion_dot": 9e-08,
        "meta_mean_motion_ddot": 0,
        "tle_line1": "1 61182U 24167A   25344.68129344  .00000009  00000+0  00000+0 0  9990",
        "tle_line2": "2 61182  55.2414 226.4872 0001943 211.0668 325.7159  1.70473375  7661"
      },
      "geometry": {
        "type": "Point",
        "coordinates": [
          -128.83374889394665,
          6.729870780503854
        ]
      }
    },
    {
      "type": "Feature",
      "properties": {
        "norad_id": 61183,
        "name": "GSAT0226 (GALILEO 31)",
        "group": "gnss",
        "lat": 44.83787313518188,
        "lon": 2.853082734628892,
        "alt_km": 23214.485527716206,
        "timestamp": "2025-12-11T13:55:02.408622+00:00",
        "meta_object_name": "GSAT0226 (GALILEO 31)",
        "meta_object_id": "2024-167B",
        "meta_epoch": "2025-12-09T21:57:08.318304",
        "meta_mean_motion": 1.70473488,
        "meta_eccentricity": 8.079e-05,
        "meta_inclination": 55.2402,
        "meta_ra_of_asc_node": 226.5136,
        "meta_arg_of_pericenter": 118.4795,
        "meta_mean_anomaly": 60.4734,
        "meta_ephemeris_type": 0,
        "meta_classification_type": "U",
        "meta_norad_cat_id": 61183,
        "meta_element_set_no": 999,
        "meta_rev_at_epoch": 762,
        "meta_bstar": 0,
        "meta_mean_motion_dot": 1e-07,
        "meta_mean_motion_ddot": 0,
        "tle_line1": "1 61183U 24167B   25343.91467961  .00000010  00000+0  00000+0 0  9998",
        "tle_line2": "2 61183  55.2402 226.5136 0000807 118.4795  60.4734  1.70473488  7625"
      },
      "geometry": {
        "type": "Point",
        "coordinates": [
          2.853082734628892,
          44.83787313518188
        ]
      }
    },
    {
      "type": "Feature",
      "properties": {
        "norad_id": 61186,
        "name": "BEIDOU-3 M25 (C47)",
        "group": "gnss",
        "lat": 29.60259158498223,
        "lon": -27.484785216017695,
        "alt_km": 21527.446280022996,
        "timestamp": "2025-12-11T13:55:02.408635+00:00",
        "meta_object_name": "BEIDOU-3 M25 (C47)",
        "meta_object_id": "2024-168B",
        "meta_epoch": "2025-12-09T12:38:32.089056",
        "meta_mean_motion": 1.86229941,
        "meta_eccentricity": 0.0005432,
        "meta_inclination": 54.6447,
        "meta_ra_of_asc_node": 308.8306,
        "meta_arg_of_pericenter": 296.174,
        "meta_mean_anomaly": 164.5169,
        "meta_ephemeris_type": 0,
        "meta_classification_type": "U",
        "meta_norad_cat_id": 61186,
        "meta_element_set_no": 999,
        "meta_rev_at_epoch": 825,
        "meta_bstar": 0,
        "meta_mean_motion_dot": -7.8e-07,
        "meta_mean_motion_ddot": 0,
        "tle_line1": "1 61186U 24168B   25343.52676029 -.00000078  00000+0  00000+0 0  9991",
        "tle_line2": "2 61186  54.6447 308.8306 0005432 296.1740 164.5169  1.86229941  8254"
      },
      "geometry": {
        "type": "Point",
        "coordinates": [
          -27.484785216017695,
          29.60259158498223
        ]
      }
    },
    {
      "type": "Feature",
      "properties": {
        "norad_id": 61187,
        "name": "BEIDOU-3 M27 (C49)",
        "group": "gnss",
        "lat": 6.35733632202944,
        "lon": 124.19090131961555,
        "alt_km": 21533.83514735199,
        "timestamp": "2025-12-11T13:55:02.408651+00:00",
        "meta_object_name": "BEIDOU-3 M27 (C49)",
        "meta_object_id": "2024-168C",
        "meta_epoch": "2025-12-10T08:23:50.553888",
        "meta_mean_motion": 1.86230151,
        "meta_eccentricity": 0.00023508,
        "meta_inclination": 54.6394,
        "meta_ra_of_asc_node": 308.7857,
        "meta_arg_of_pericenter": 335.0567,
        "meta_mean_anomaly": 92.4403,
        "meta_ephemeris_type": 0,
        "meta_classification_type": "U",
        "meta_norad_cat_id": 61187,
        "meta_element_set_no": 999,
        "meta_rev_at_epoch": 574,
        "meta_bstar": 0,
        "meta_mean_motion_dot": -8.2e-07,
        "meta_mean_motion_ddot": 0,
        "tle_line1": "1 61187U 24168C   25344.34989067 -.00000082  00000+0  00000+0 0  9997",
        "tle_line2": "2 61187  54.6394 308.7857 0002350 335.0567  92.4403  1.86230151  5748"
      },
      "geometry": {
        "type": "Point",
        "coordinates": [
          124.19090131961555,
          6.35733632202944
        ]
      }
    },
    {
      "type": "Feature",
      "properties": {
        "norad_id": 62339,
        "name": "GPS BIII-7  (PRN 01)",
        "group": "gnss",
        "lat": 29.352558924817135,
        "lon": 138.51007230128863,
        "alt_km": 20208.27674767787,
        "timestamp": "2025-12-11T13:55:02.408662+00:00",
        "meta_object_name": "GPS BIII-7  (PRN 01)",
        "meta_object_id": "2024-242A",
        "meta_epoch": "2025-12-10T14:03:42.090048",
        "meta_mean_motion": 2.00567746,
        "meta_eccentricity": 0.0012131,
        "meta_inclination": 54.9242,
        "meta_ra_of_asc_node": 341.8267,
        "meta_arg_of_pericenter": 344.331,
        "meta_mean_anomaly": 161.0631,
        "meta_ephemeris_type": 0,
        "meta_classification_type": "U",
        "meta_norad_cat_id": 62339,
        "meta_element_set_no": 999,
        "meta_rev_at_epoch": 747,
        "meta_bstar": 0,
        "meta_mean_motion_dot": -9e-07,
        "meta_mean_motion_ddot": 0,
        "tle_line1": "1 62339U 24242A   25344.58590382 -.00000090  00000+0  00000+0 0  9993",
        "tle_line2": "2 62339  54.9242 341.8267 0012131 344.3310 161.0631  2.00567746  7471"
      },
      "geometry": {
        "type": "Point",
        "coordinates": [
          138.51007230128863,
          29.352558924817135
        ]
      }
    },
    {
      "type": "Feature",
      "properties": {
        "norad_id": 62850,
        "name": "NVS-02 (IRNSS-1K)",
        "group": "gnss",
        "lat": -20.059172002819313,
        "lon": -139.74675144511497,
        "alt_km": 16521.52228162124,
        "timestamp": "2025-12-11T13:55:02.408678+00:00",
        "meta_object_name": "NVS-02 (IRNSS-1K)",
        "meta_object_id": "2025-020A",
        "meta_epoch": "2025-12-11T04:04:05.894688",
        "meta_mean_motion": 2.17592713,
        "meta_eccentricity": 0.73479478,
        "meta_inclination": 20.9874,
        "meta_ra_of_asc_node": 328.2282,
        "meta_arg_of_pericenter": 25.2136,
        "meta_mean_anomaly": 357.3341,
        "meta_ephemeris_type": 0,
        "meta_classification_type": "U",
        "meta_norad_cat_id": 62850,
        "meta_element_set_no": 999,
        "meta_rev_at_epoch": 688,
        "meta_bstar": 0.00036872172,
        "meta_mean_motion_dot": 2.82e-06,
        "meta_mean_motion_ddot": 0,
        "tle_line1": "1 62850U 25020A   25345.16951267  .00000282  00000+0  36872-3 0  9996",
        "tle_line2": "2 62850  20.9874 328.2282 7347947  25.2136 357.3341  2.17592713  6885"
      },
      "geometry": {
        "type": "Point",
        "coordinates": [
          -139.74675144511497,
          -20.059172002819313
        ]
      }
    }
  ]
}